[{"OBJECT_NAME":"EXPRESS-AM5","OBJECT_ID":"2013-077A","EPOCH":"2026-02-01T22:42:42.922368","MEAN_MOTION":1.00271863,"ECCENTRICITY":0.00024431,"INCLINATION":0.0183,"RA_OF_ASC_NODE":83.1664,"ARG_OF_PERICENTER":236.7763,"MEAN_ANOMALY":292.8776,"EPHEMERIS_TYPE":0,"CLASSIFICATION_TYPE":"U","NORAD_CAT_ID":39487,"ELEMENT_SET_NO":999,"REV_AT_EPOCH":4500,"BSTAR":0,"MEAN_MOTION_DOT":-2.9e-6,"MEAN_MOTION_DDOT":0},{"OBJECT_NAME":"GSAT-14","OBJECT_ID":"2014-001A","EPOCH":"2026-02-01T22:23:52.227168","MEAN_MOTION":1.00269619,"ECCENTRICITY":0.00050935,"INCLINATION":0.014,"RA_OF_ASC_NODE":221.7591,"ARG_OF_PERICENTER":76.5322,"MEAN_ANOMALY":243.7922,"EPHEMERIS_TYPE":0,"CLASSIFICATION_TYPE":"U","NORAD_CAT_ID":39498,"ELEMENT_SET_NO":999,"REV_AT_EPOCH":4402,"BSTAR":0,"MEAN_MOTION_DOT":0,"MEAN_MOTION_DDOT":0},{"OBJECT_NAME":"THAICOM 6","OBJECT_ID":"2014-002A","EPOCH":"2026-02-01T22:25:07.106592","MEAN_MOTION":1.00273044,"ECCENTRICITY":0.00020865,"INCLINATION":0.0539,"RA_OF_ASC_NODE":110.5346,"ARG_OF_PERICENTER":245.4153,"MEAN_ANOMALY":190.9743,"EPHEMERIS_TYPE":0,"CLASSIFICATION_TYPE":"U","NORAD_CAT_ID":39500,"ELEMENT_SET_NO":999,"REV_AT_EPOCH":4410,"BSTAR":0,"MEAN_MOTION_DOT":-1.31e-6,"MEAN_MOTION_DDOT":0},{"OBJECT_NAME":"TDRS 12","OBJECT_ID":"2014-004A","EPOCH":"2026-02-01T21:50:55.383936","MEAN_MOTION":1.00263958,"ECCENTRICITY":0.00055509,"INCLINATION":3.8477,"RA_OF_ASC_NODE":16.6865,"ARG_OF_PERICENTER":265.992,"MEAN_ANOMALY":135.9801,"EPHEMERIS_TYPE":0,"CLASSIFICATION_TYPE":"U","NORAD_CAT_ID":39504,"ELEMENT_SET_NO":999,"REV_AT_EPOCH":4292,"BSTAR":0,"MEAN_MOTION_DOT":-2.8e-6,"MEAN_MOTION_DDOT":0},{"OBJECT_NAME":"ABS-2","OBJECT_ID":"2014-006A","EPOCH":"2026-02-01T22:24:07.202880","MEAN_MOTION":1.00270981,"ECCENTRICITY":0.00034552,"INCLINATION":0.0053,"RA_OF_ASC_NODE":321.2388,"ARG_OF_PERICENTER":341.425,"MEAN_ANOMALY":240.3841,"EPHEMERIS_TYPE":0,"CLASSIFICATION_TYPE":"U","NORAD_CAT_ID":39508,"ELEMENT_SET_NO":999,"REV_AT_EPOCH":4392,"BSTAR":0,"MEAN_MOTION_DOT":-9.5e-7,"MEAN_MOTION_DDOT":0},{"OBJECT_NAME":"ATHENA-FIDUS","OBJECT_ID":"2014-006B","EPOCH":"2026-02-01T22:13:30.719136","MEAN_MOTION":1.00269699,"ECCENTRICITY":0.00012044,"INCLINATION":0.0276,"RA_OF_ASC_NODE":104.5642,"ARG_OF_PERICENTER":217.2354,"MEAN_ANOMALY":181.4748,"EPHEMERIS_TYPE":0,"CLASSIFICATION_TYPE":"U","NORAD_CAT_ID":39509,"ELEMENT_SET_NO":999,"REV_AT_EPOCH":4373,"BSTAR":0,"MEAN_MOTION_DOT":1.44e-6,"MEAN_MOTION_DDOT":0},{"OBJECT_NAME":"TURKSAT 4A","OBJECT_ID":"2014-007A","EPOCH":"2026-02-01T21:41:38.899680","MEAN_MOTION":1.00269048,"ECCENTRICITY":0.00051062,"INCLINATION":0.0797,"RA_OF_ASC_NODE":279.9865,"ARG_OF_PERICENTER":15.5695,"MEAN_ANOMALY":203.9334,"EPHEMERIS_TYPE":0,"CLASSIFICATION_TYPE":"U","NORAD_CAT_ID":39522,"ELEMENT_SET_NO":999,"REV_AT_EPOCH":4361,"BSTAR":0,"MEAN_MOTION_DOT":1.36e-6,"MEAN_MOTION_DDOT":0},{"OBJECT_NAME":"EXPRESS-AT1","OBJECT_ID":"2014-010A","EPOCH":"2026-02-01T22:18:45.216864","MEAN_MOTION":1.00271518,"ECCENTRICITY":7.319e-5,"INCLINATION":0.0336,"RA_OF_ASC_NODE":264.0089,"ARG_OF_PERICENTER":349.7916,"MEAN_ANOMALY":268.9867,"EPHEMERIS_TYPE":0,"CLASSIFICATION_TYPE":"U","NORAD_CAT_ID":39612,"ELEMENT_SET_NO":999,"REV_AT_EPOCH":4346,"BSTAR":0,"MEAN_MOTION_DOT":6.9e-7,"MEAN_MOTION_DDOT":0},{"OBJECT_NAME":"EXPRESS-AT2","OBJECT_ID":"2014-010B","EPOCH":"2026-02-01T22:42:35.434080","MEAN_MOTION":1.00269603,"ECCENTRICITY":0.00018072,"INCLINATION":0.0245,"RA_OF_ASC_NODE":92.3143,"ARG_OF_PERICENTER":194.4439,"MEAN_ANOMALY":325.8901,"EPHEMERIS_TYPE":0,"CLASSIFICATION_TYPE":"U","NORAD_CAT_ID":39613,"ELEMENT_SET_NO":999,"REV_AT_EPOCH":4314,"BSTAR":0,"MEAN_MOTION_DOT":0,"MEAN_MOTION_DDOT":0},{"OBJECT_NAME":"AMAZONAS 4A","OBJECT_ID":"2014-011A","EPOCH":"2026-02-01T21:41:33.781344","MEAN_MOTION":1.00272374,"ECCENTRICITY":0.00039021,"INCLINATION":0.0621,"RA_OF_ASC_NODE":159.691,"ARG_OF_PERICENTER":127.2654,"MEAN_ANOMALY":96.5024,"EPHEMERIS_TYPE":0,"CLASSIFICATION_TYPE":"U","NORAD_CAT_ID":39616,"ELEMENT_SET_NO":999,"REV_AT_EPOCH":4335,"BSTAR":0,"MEAN_MOTION_DOT":-2.62e-6,"MEAN_MOTION_DDOT":0},{"OBJECT_NAME":"ASTRA 5B","OBJECT_ID":"2014-011B","EPOCH":"2026-02-01T21:17:38.584896","MEAN_MOTION":1.00269065,"ECCENTRICITY":0.00048704,"INCLINATION":0.0752,"RA_OF_ASC_NODE":299.5311,"ARG_OF_PERICENTER":5.6912,"MEAN_ANOMALY":169.7438,"EPHEMERIS_TYPE":0,"CLASSIFICATION_TYPE":"U","NORAD_CAT_ID":39617,"ELEMENT_SET_NO":999,"REV_AT_EPOCH":4331,"BSTAR":0,"MEAN_MOTION_DOT":1.27e-6,"MEAN_MOTION_DDOT":0},{"OBJECT_NAME":"IRNSS-1B","OBJECT_ID":"2014-017A","EPOCH":"2026-02-01T15:27:46.232640","MEAN_MOTION":1.00269065,"ECCENTRICITY":0.00202359,"INCLINATION":29.1626,"RA_OF_ASC_NODE":242.7186,"ARG_OF_PERICENTER":177.0014,"MEAN_ANOMALY":359.1851,"EPHEMERIS_TYPE":0,"CLASSIFICATION_TYPE":"U","NORAD_CAT_ID":39635,"ELEMENT_SET_NO":999,"REV_AT_EPOCH":4343,"BSTAR":0,"MEAN_MOTION_DOT":1.32e-6,"MEAN_MOTION_DDOT":0},{"OBJECT_NAME":"LUCH-5V","OBJECT_ID":"2014-023A","EPOCH":"2026-02-02T03:37:20.591328","MEAN_MOTION":1.00278895,"ECCENTRICITY":0.0003324,"INCLINATION":4.799,"RA_OF_ASC_NODE":71.0766,"ARG_OF_PERICENTER":252.5713,"MEAN_ANOMALY":317.6882,"EPHEMERIS_TYPE":0,"CLASSIFICATION_TYPE":"U","NORAD_CAT_ID":39727,"ELEMENT_SET_NO":999,"REV_AT_EPOCH":4300,"BSTAR":0,"MEAN_MOTION_DOT":-2.8e-6,"MEAN_MOTION_DDOT":0},{"OBJECT_NAME":"KAZSAT-3","OBJECT_ID":"2014-023B","EPOCH":"2026-02-01T21:25:38.770176","MEAN_MOTION":1.00268593,"ECCENTRICITY":2.46e-5,"INCLINATION":0.0212,"RA_OF_ASC_NODE":1.3276,"ARG_OF_PERICENTER":36.7647,"MEAN_ANOMALY":113.8646,"EPHEMERIS_TYPE":0,"CLASSIFICATION_TYPE":"U","NORAD_CAT_ID":39728,"ELEMENT_SET_NO":999,"REV_AT_EPOCH":4110,"BSTAR":0,"MEAN_MOTION_DOT":5.1e-7,"MEAN_MOTION_DDOT":0},{"OBJECT_NAME":"EUTELSAT 3B","OBJECT_ID":"2014-030A","EPOCH":"2026-02-01T21:49:38.589888","MEAN_MOTION":1.00272223,"ECCENTRICITY":0.00029185,"INCLINATION":0.0631,"RA_OF_ASC_NODE":12.1432,"ARG_OF_PERICENTER":244.813,"MEAN_ANOMALY":205.6255,"EPHEMERIS_TYPE":0,"CLASSIFICATION_TYPE":"U","NORAD_CAT_ID":39773,"ELEMENT_SET_NO":999,"REV_AT_EPOCH":4271,"BSTAR":0,"MEAN_MOTION_DOT":1.0e-7,"MEAN_MOTION_DDOT":0},{"OBJECT_NAME":"ASIASAT 8 (AMOS-7)","OBJECT_ID":"2014-046A","EPOCH":"2026-02-01T22:32:43.878336","MEAN_MOTION":1.00270085,"ECCENTRICITY":0.00015583,"INCLINATION":0.0099,"RA_OF_ASC_NODE":252.2602,"ARG_OF_PERICENTER":37.8856,"MEAN_ANOMALY":285.4532,"EPHEMERIS_TYPE":0,"CLASSIFICATION_TYPE":"U","NORAD_CAT_ID":40107,"ELEMENT_SET_NO":999,"REV_AT_EPOCH":10079,"BSTAR":0,"MEAN_MOTION_DOT":-3.42e-6,"MEAN_MOTION_DDOT":0},{"OBJECT_NAME":"ASIASAT 6","OBJECT_ID":"2014-052A","EPOCH":"2026-02-01T22:36:58.472352","MEAN_MOTION":1.00268956,"ECCENTRICITY":9.606e-5,"INCLINATION":0.0187,"RA_OF_ASC_NODE":98.1739,"ARG_OF_PERICENTER":188.0259,"MEAN_ANOMALY":305.104,"EPHEMERIS_TYPE":0,"CLASSIFICATION_TYPE":"U","NORAD_CAT_ID":40141,"ELEMENT_SET_NO":999,"REV_AT_EPOCH":4171,"BSTAR":0,"MEAN_MOTION_DOT":0,"MEAN_MOTION_DDOT":0},{"OBJECT_NAME":"OPTUS 10","OBJECT_ID":"2014-054A","EPOCH":"2026-02-01T21:04:29.833248","MEAN_MOTION":1.00270659,"ECCENTRICITY":0.0002261,"INCLINATION":0.0501,"RA_OF_ASC_NODE":65.7118,"ARG_OF_PERICENTER":244.2974,"MEAN_ANOMALY":294.183,"EPHEMERIS_TYPE":0,"CLASSIFICATION_TYPE":"U","NORAD_CAT_ID":40146,"ELEMENT_SET_NO":999,"REV_AT_EPOCH":4167,"BSTAR":0,"MEAN_MOTION_DOT":-1.57e-6,"MEAN_MOTION_DDOT":0},{"OBJECT_NAME":"MEASAT-3B","OBJECT_ID":"2014-054B","EPOCH":"2026-02-01T22:28:51.749184","MEAN_MOTION":1.00272263,"ECCENTRICITY":0.0002461,"INCLINATION":0.027,"RA_OF_ASC_NODE":17.6168,"ARG_OF_PERICENTER":346.014,"MEAN_ANOMALY":197.2094,"EPHEMERIS_TYPE":0,"CLASSIFICATION_TYPE":"U","NORAD_CAT_ID":40147,"ELEMENT_SET_NO":999,"REV_AT_EPOCH":4155,"BSTAR":0,"MEAN_MOTION_DOT":-2.52e-6,"MEAN_MOTION_DDOT":0},{"OBJECT_NAME":"HIMAWARI-8","OBJECT_ID":"2014-060A","EPOCH":"2026-02-01T22:42:50.409792","MEAN_MOTION":1.00269895,"ECCENTRICITY":0.00011616,"INCLINATION":0.0209,"RA_OF_ASC_NODE":173.6073,"ARG_OF_PERICENTER":129.6734,"MEAN_ANOMALY":310.1969,"EPHEMERIS_TYPE":0,"CLASSIFICATION_TYPE":"U","NORAD_CAT_ID":40267,"ELEMENT_SET_NO":999,"REV_AT_EPOCH":4140,"BSTAR":0,"MEAN_MOTION_DOT":-2.86e-6,"MEAN_MOTION_DDOT":0},{"OBJECT_NAME":"IRNSS-1C","OBJECT_ID":"2014-061A","EPOCH":"2026-02-01T17:18:13.148064","MEAN_MOTION":1.00274684,"ECCENTRICITY":0.0018897,"INCLINATION":6.1707,"RA_OF_ASC_NODE":91.6025,"ARG_OF_PERICENTER":357.0014,"MEAN_ANOMALY":25.7865,"EPHEMERIS_TYPE":0,"CLASSIFICATION_TYPE":"U","NORAD_CAT_ID":40269,"ELEMENT_SET_NO":999,"REV_AT_EPOCH":4133,"BSTAR":0,"MEAN_MOTION_DOT":-1.74e-6,"MEAN_MOTION_DDOT":0},{"OBJECT_NAME":"INTELSAT 30 (IS-30)","OBJECT_ID":"2014-062A","EPOCH":"2026-02-01T19:52:36.721056","MEAN_MOTION":1.00271299,"ECCENTRICITY":0.00011582,"INCLINATION":0.0135,"RA_OF_ASC_NODE":60.7787,"ARG_OF_PERICENTER":49.1245,"MEAN_ANOMALY":225.1994,"EPHEMERIS_TYPE":0,"CLASSIFICATION_TYPE":"U","NORAD_CAT_ID":40271,"ELEMENT_SET_NO":999,"REV_AT_EPOCH":543,"BSTAR":0,"MEAN_MOTION_DOT":-1.61e-6,"MEAN_MOTION_DDOT":0},{"OBJECT_NAME":"ARSAT 1","OBJECT_ID":"2014-062B","EPOCH":"2026-02-01T21:42:03.732768","MEAN_MOTION":1.00268618,"ECCENTRICITY":0.0001726,"INCLINATION":0.017,"RA_OF_ASC_NODE":303.5244,"ARG_OF_PERICENTER":359.7429,"MEAN_ANOMALY":82.5552,"EPHEMERIS_TYPE":0,"CLASSIFICATION_TYPE":"U","NORAD_CAT_ID":40272,"ELEMENT_SET_NO":999,"REV_AT_EPOCH":4126,"BSTAR":0,"MEAN_MOTION_DOT":0,"MEAN_MOTION_DDOT":0},{"OBJECT_NAME":"EUTELSAT 53A","OBJECT_ID":"2014-064A","EPOCH":"2026-02-01T22:17:52.800576","MEAN_MOTION":1.00271148,"ECCENTRICITY":0.00011763,"INCLINATION":0.0064,"RA_OF_ASC_NODE":36.289,"ARG_OF_PERICENTER":336.4003,"MEAN_ANOMALY":146.8672,"EPHEMERIS_TYPE":0,"CLASSIFICATION_TYPE":"U","NORAD_CAT_ID":40277,"ELEMENT_SET_NO":999,"REV_AT_EPOCH":4021,"BSTAR":0,"MEAN_MOTION_DOT":8.8e-7,"MEAN_MOTION_DDOT":0}]
